#dP2025  1 14 18  0  0.00000000      96 __u+U IGS20 EXT  IAC
## 2349 237600.00000000   900.00000000 60689 0.7500000000000
+   52   G01G02G03G04G05G06G07G08G09G10G11G12G13G14G15G16G17
+        G18G19G20G21G22G23G24G25G26G27G28G29G30G31G32R01R02
+        R03R04R05R07R08R09R11R12R14R15R16R17R18R19R20R21R22
+        R24  0  0  0  0  0  0  0  0  0  0  0  0  0  0  0  0
+          0  0  0  0  0  0  0  0  0  0  0  0  0  0  0  0  0
++         8  7  9  9  7  9  7  7  8  7  8  7  6  7  7  7  8
++         8  8  8  7  7  9  7  9  7  8  7  7  8  8  7  8  8
++         9  7  8  8  9  9  9  9  7  7  8  8  8  9  8  8  8
++         8  0  0  0  0  0  0  0  0  0  0  0  0  0  0  0  0
++         0  0  0  0  0  0  0  0  0  0  0  0  0  0  0  0  0
%c M  cc GPS ccc cccc cccc cccc cccc ccccc ccccc ccccc ccccc
%c cc cc ccc ccc cccc cccc cccc cccc ccccc ccccc ccccc ccccc
%f  0.0000000  0.000000000  0.00000000000  0.000000000000000
%f  0.0000000  0.000000000  0.00000000000  0.000000000000000
%i    0    0    0    0      0      0      0      0         0
%i    0    0    0    0      0      0      0      0         0
/* IAC                                ULTRA-RAPID PREDICTION
/* S/V CLOCKS ARE ALIGNED TO GNSS TIME                      
/* G:C1WC2W R:C1PC2P E:C1XC5X C:C2IC6I J:C1CC2S             
/* PCV:IGS20_2317 OL/AL:FES2004  NONE     YN ORB:CoN CLK:CoN
*  2025 01 14 21 30  0.00000000
PG01  14667.783831 -12654.646363  18175.534977     48.671393
PG02  13825.694106 -10653.190162  20369.440216   -267.781456
PG03  23258.421335 -12599.239119  -1705.660946    646.068503
PG04  16098.326558  -5724.925054 -20356.055094    511.999028
PG05 -23268.659153   3128.856071 -12657.935726   -199.033276
PG06  -6341.414363 -22523.468705 -12374.721678   -118.655325
PG07   6708.556579 -24240.953747  -7249.107031    -13.517113
PG08  23053.468763   3088.166270  13100.071397    460.923721
PG09   7384.946780 -13366.117924 -21823.127148    528.807543
PG10   3523.913877  14554.522321  22141.737663   -276.953771
PG11 -12497.106478 -12336.715359 -19902.016943   -751.678164
PG12 -24685.661880   9689.469978    666.842579   -564.474963
PG13 -22058.143966 -12820.388732   7586.575705    693.483451
PG14    589.443527 -16761.409899  20591.705550    580.035195
PG15 -22940.224196     17.273000  12985.344626    251.676554
PG16  21226.282990   3816.741067 -16152.010711    -77.794871
PG17  -7411.997003 -19775.903615  16383.446000    474.095535
PG18  -5829.006281  25181.587403  -5536.243528   -657.850864
PG19 -16253.161792 -19958.637663   7281.129179    586.232995
PG20 -16129.688709  -5723.060941 -20189.309395    367.071430
PG21  15253.909214  -2359.487003  21915.862309    101.033911
PG22  -7065.853221 -13768.184994  21955.768166    -92.302531
PG23 -11499.020342  17956.498962  15729.870502    403.925267
PG24 -14449.427253   8660.295408  19978.614113   -463.903291
PG25 -17143.426829  17400.832118 -10456.094854    496.736664
PG26  13108.612623  10303.506223 -20920.216521    -48.405893
PG27  23414.183021  12564.749690   3164.939295    -33.046339
PG28   6495.006099  23574.824688 -10380.546198   -535.453389
PG29  -8296.853753  12621.297484 -21890.033103   -547.095723
PG30  -1278.628040 -26124.660845   3841.214538   -239.077888
PG31  11139.484356  16517.290987 -17633.266567   -217.870795
PG32  13020.951283  19340.720801  13143.309579   -541.537037
PR01   2921.672153  11490.929930  22587.116428    111.259960
PR02  18967.015912  11008.881859  13136.697988    -38.462896
PR03  24881.001314   3925.184239  -4182.922539    114.927120
PR04  16879.129103  -4564.464648 -18548.717790    272.536644
PR05     32.230546 -10914.529902 -23039.769675    143.750615
PR07 -24781.475997  -3702.681898   4668.839391     98.887366
PR08 -16554.593891   5029.765660  18789.725536     -6.361400
PR09  -6485.787217  -9695.288414  22692.681884    232.117381
PR11 -18698.926969  16564.188693   5211.755612     -0.768661
PR12  -8964.695727  19385.850156 -13918.898095     49.613105
PR14  16924.892186  -5252.615264 -18334.296956     27.598066
PR15  18418.110392 -17318.993689  -3356.226352     72.191561
PR16   9067.474171 -19377.020042  13866.505673     32.470825
PR17  12047.494221   5495.032913  21807.027243    157.526516
PR18   6977.510016 -11571.736008  21643.648145    181.928467
PR19    148.688492 -22415.607500  12179.971562   -305.524983
PR20  -9459.197566 -21862.888143  -9048.903514   -124.540675
PR21 -12076.021211  -7029.140490 -21340.764776   -168.200615
PR22  -6974.198914  12805.873220 -20902.952059    -55.970340
PR24  10888.400088  21041.037448   9459.965762    -88.199897
*  2025 01 14 21 45  0.00000000
PG01  14559.855790 -10493.929744  19584.615574     48.699100
PG02  14041.542183  -8363.032665  21325.410317   -267.773193
PG03  23355.035257 -12438.829001   1209.571622    646.075148
PG04  17922.653361  -4391.594246 -19140.894994    512.004305
PG05 -22025.995793   2195.423969 -14903.056728   -199.034210
PG06  -6120.078271 -23796.325414  -9851.892171   -118.679385
PG07   6981.961518 -23172.078607  -9869.684705    -13.516867
PG08  24142.265144   3947.500021  10760.602203    460.930708
PG09   9517.328614 -12115.831358 -21732.704159    528.820985
PG10   1341.191511  15666.022997  21581.616647   -276.968202
PG11 -12219.093685 -14527.525972 -18558.478023   -751.677235
PG12 -24545.796775   9340.903282   3511.711196   -564.476914
PG13 -22493.677515 -13441.370720   4837.741926    693.484550
PG14   2691.349675 -17704.472440  19587.336790    580.041663
PG15 -24153.049698   -778.936608  10659.339423    251.680639
PG16  19557.039485   4676.310106 -17933.687168    -77.786434
PG17  -5761.678583 -18798.040650  18164.712222    474.079787
PG18  -6013.308846  24373.385342  -8283.486290   -657.849622
PG19 -15351.582667 -19509.743082   9890.827573    586.237083
PG20 -14323.232005  -7276.725138 -21041.445942    367.071169
PG21  15458.101448     68.420677  21999.046340    101.034731
PG22  -4834.588370 -14733.724647  21960.921513    -92.304305
PG23 -13029.400327  18650.505714  13553.953964    403.932016
PG24 -14728.331597   6234.493589  20687.232238   -463.899649
PG25 -18160.607438  17659.536027  -7878.507773    496.736143
PG26  11132.317633  11640.887445 -21328.164142    -48.419724
PG27  23495.284114  12879.505055    347.515651    -33.045926
PG28   6264.921827  24612.677435  -7785.055127   -535.462023
PG29 -10310.544369  11157.343048 -21839.898481   -547.092651
PG30   -925.915806 -26381.473283   1039.920257   -239.070300
PG31  10852.894541  18390.854503 -15807.129726   -217.870021
PG32  11577.701511  18665.015589  15311.110733   -541.530715
PR01    152.588665  10991.349803  23020.910352    111.261155
PR02  17269.978330  10496.154136  15657.688015    -38.462607
PR03  25233.563586   3822.203463   -985.437205    114.927619
PR04  19022.237738  -4225.787302 -16440.294699    272.538240
PR05   2820.897191 -10298.329663 -23152.628739    143.750997
PR07 -25180.823142  -3617.078200   1471.707682     98.888031
PR08 -18712.972093   4696.656447  16727.233668     -6.361448
PR09  -4744.348386 -11835.094129  22093.364983    232.119395
PR11 -18049.747225  16026.469118   8279.674131     -0.771383
PR12  -9907.251820  20627.660331 -11239.366153     49.613490
PR14  15334.380566  -3494.185510 -20071.824331     27.598143
PR15  17924.247781 -16942.505480  -6484.250406     72.191215
PR16   9987.655915 -20625.527946  11168.118885     32.471087
PR17  12932.389124   7952.124071  20499.711611    157.529544
PR18   7738.921491  -8949.534066  22611.447049    181.930200
PR19    427.123353 -20762.001751  14819.369585   -305.526157
PR20  -9903.252019 -22706.595250  -5976.515316   -124.541068
PR21 -12934.147664  -9427.658516 -19864.327763   -168.203495
PR22  -7667.258151  10240.920079 -22040.386018    -55.972067
PR24  11328.816842  21926.140771   6444.450698    -88.201361
EOF
